NORAD_CAT_ID,OBJECT_NAME,OBJECT_TYPE,EPOCH,MEAN_MOTION,ECCENTRICITY,INCLINATION,RA_OF_ASC_NODE,ARG_OF_PERICENTER,MEAN_ANOMALY,BSTAR,MEAN_MOTION_DOT,MEAN_MOTION_DDOT,TLE_LINE0,TLE_LINE1,TLE_LINE2,SEMIMAJOR_AXIS,PERIOD,APOGEE,PERIGEE,DECAYED
52000.0,STARLINK-3653,PAYLOAD,2023-02-03 08:54:26,15.08841624,0.000134,53.2171,53.3262,93.2126,266.902,5.2866e-05,5.54e-06,0.0,0 STARLINK-3653,1 52000U 22025AW  23034.37114255  .00000554  00000-0  52866-4 0  9993,2 52000  53.2171  53.3262 0001340  93.2126 266.9020 15.08841624 50289,6917.875,95.437,540.667,538.813,0.0
52000.0,STARLINK-3653,PAYLOAD,2023-02-04 07:09:50,15.08845158,0.0001276,53.2168,49.1626,96.8065,263.3072,0.00014507,2.022e-05,0.0,0 STARLINK-3653,1 52000U 22025AW  23035.29849837  .00002022  00000-0  14507-3 0  9997,2 52000  53.2168  49.1626 0001276  96.8065 263.3072 15.08845158 50421,6917.865,95.437,540.612,538.847,0.0
52000.0,STARLINK-3653,PAYLOAD,2023-02-04 18:17:32,15.08839697,0.0001306,53.2167,47.0813,84.3609,275.7532,9.1488e-05,1.168e-05,0.0,0 STARLINK-3653,1 52000U 22025AW  23035.76218412  .00001168  00000-0  91488-4 0  9992,2 52000  53.2167  47.0813 0001306  84.3609 275.7532 15.08839697 52022,6917.881,95.438,540.65,538.843,0.0
52000.0,STARLINK-3653,PAYLOAD,2023-02-05 10:11:24,15.08842894,0.0001342,53.2163,44.1059,100.5089,259.6054,5.0783e-05,5.2e-06,0.0,0 STARLINK-3653,1 52000U 22025AW  23036.42458342  .00000520  00000-0  50783-4 0  9998,2 52000  53.2163  44.1059 0001342 100.5089 259.6054 15.08842894 50594,6917.872,95.437,540.665,538.808,0.0
52000.0,STARLINK-3653,PAYLOAD,2023-02-06 03:40:38,15.08843313,0.0001242,53.2154,40.8334,108.8589,251.2538,-1.448e-05,-5.18e-06,0.0,0 STARLINK-3653,1 52000U 22025AW  23037.15322394 -.00000518  00000-0 -14480-4 0  9999,2 52000  53.2154  40.8334 0001242 108.8589 251.2538 15.08843313 52233,6917.87,95.437,540.594,538.876,0.0
52000.0,STARLINK-3653,PAYLOAD,2023-02-06 10:02:10,15.08847841,0.0001297,53.2155,39.6439,106.4792,253.6343,2.7199e-05,1.45e-06,0.0,0 STARLINK-3653,1 52000U 22025AW  23037.41817996  .00000145  00000-0  27199-4 0  9990,2 52000  53.2155  39.6439 0001297 106.4792 253.6343 15.08847841 50740,6917.856,95.437,540.619,538.824,0.0
52000.0,STARLINK-3653,PAYLOAD,2023-02-07 08:17:33,15.08859861,0.0001104,53.2161,35.4805,99.5738,260.5379,0.0002332,3.427e-05,0.0,0 STARLINK-3653,1 52000U 22025AW  23038.34552712  .00003427  00000-0  23320-3 0  9992,2 52000  53.2161  35.4805 0001104  99.5738 260.5379 15.08859861 52414,6917.82,95.436,540.448,538.921,0.0
52000.0,STARLINK-3653,PAYLOAD,2023-02-08 09:43:44,15.08847251,9.47e-05,53.2162,30.7248,67.3368,292.7724,0.00012472,1.698e-05,0.0,0 STARLINK-3653,1 52000U 22025AW  23039.40537702  .00001698  00000-0  12472-3 0  9996,2 52000  53.2162  30.7248 0000947  67.3368 292.7724 15.08847251 52578,6917.858,95.437,540.378,539.068,0.0
52000.0,STARLINK-3653,PAYLOAD,2023-02-09 03:12:59,15.08839714,0.0001193,53.2161,27.453,87.6219,272.491,-0.00014902,-2.659e-05,0.0,0 STARLINK-3653,1 52000U 22025AW  23040.13402205 -.00002659  00000-0 -14902-3 0  9997,2 52000  53.2161  27.4530 0001193  87.6219 272.4910 15.08839714 52687,6917.881,95.438,540.572,538.921,0.0
52000.0,STARLINK-3653,PAYLOAD,2023-02-09 07:59:08,15.08843441,0.0001075,53.2167,26.5603,85.9106,274.2009,-6.0052e-05,-1.243e-05,0.0,0 STARLINK-3653,1 52000U 22025AW  23040.33274147 -.00001243  00000-0 -60052-4 0  9997,2 52000  53.2167  26.5603 0001075  85.9106 274.2009 15.08843441 51184,6917.87,95.437,540.479,538.991,0.0
52000.0,STARLINK-3653,PAYLOAD,2023-02-10 06:14:33,15.0883609,0.0001295,53.217,22.3989,78.5585,281.5553,0.00011094,1.478e-05,0.0,0 STARLINK-3653,1 52000U 22025AW  23041.26011032  .00001478  00000-0  11094-3 0  9991,2 52000  53.2170  22.3989 0001295  78.5585 281.5553 15.08836090 52854,6917.892,95.438,540.653,538.861,0.0
52000.0,STARLINK-3653,PAYLOAD,2023-02-11 01:19:10,15.0884619,0.000107,53.2169,18.8295,96.5404,263.571,0.00013944,1.932e-05,0.0,0 STARLINK-3653,1 52000U 22025AW  23042.05498455  .00001932  00000-0  13944-3 0  9998,2 52000  53.2169  18.8295 0001070  96.5404 263.5710 15.08846190 52973,6917.861,95.437,540.467,538.986,0.0
52000.0,STARLINK-3653,PAYLOAD,2023-02-11 07:40:42,15.08865097,0.0001051,53.2149,17.6421,67.4828,292.6275,0.00039658,6.034e-05,0.0,0 STARLINK-3653,1 52000U 22025AW  23042.31993445  .00006034  00000-0  39658-3 0  9994,2 52000  53.2149  17.6421 0001051  67.4828 292.6275 15.08865097 53017,6917.804,95.436,540.396,538.942,0.0
52000.0,STARLINK-3653,PAYLOAD,2023-02-11 15:37:39,15.08835495,0.0001867,53.2186,16.1532,67.3345,292.7845,-2.2972e-05,-6.54e-06,0.0,0 STARLINK-3653,1 52000U 22025AW  23042.65115066 -.00000654  00000-0 -22972-4 0  9992,2 52000  53.2186  16.1532 0001867  67.3345 292.7845 15.08835495 53061,6917.894,95.438,541.051,538.468,0.0
52000.0,STARLINK-3653,PAYLOAD,2023-02-12 04:20:44,15.08844137,0.0001001,53.2159,13.7749,52.4855,307.6228,0.00020224,2.933e-05,0.0,0 STARLINK-3653,1 52000U 22025AW  23043.18106599  .00002933  00000-0  20224-3 0  9999,2 52000  53.2159  13.7749 0001001  52.4855 307.6228 15.08844137 53148,6917.868,95.437,540.425,539.04,0.0
52000.0,STARLINK-3653,PAYLOAD,2023-02-12 09:06:52,15.08856176,0.0001116,53.2165,12.8823,64.4001,295.7107,0.00018224,2.615e-05,0.0,0 STARLINK-3653,1 52000U 22025AW  23043.37977873  .00002615  00000-0  18224-3 0  9995,2 52000  53.2165  12.8823 0001116  64.4001 295.7107 15.08856176 53173,6917.831,95.437,540.468,538.924,0.0
52000.0,STARLINK-3653,PAYLOAD,2023-02-12 15:28:26,15.08831809,0.0001039,53.2175,11.6945,74.8569,285.2538,-5.2847e-05,-1.129e-05,0.0,0 STARLINK-3653,1 52000U 22025AW  23043.64475217 -.00001129  00000-0 -52847-4 0  9991,2 52000  53.2175  11.6945 0001039  74.8569 285.2538 15.08831809 53217,6917.905,95.438,540.489,539.052,0.0
52000.0,STARLINK-3653,PAYLOAD,2023-02-13 04:11:31,15.0884284,0.0001103,53.2161,9.315,81.8768,278.2349,0.00010617,1.402e-05,0.0,0 STARLINK-3653,1 52000U 22025AW  23044.17466911  .00001402  00000-0  10617-3 0  9991,2 52000  53.2161   9.3150 0001103  81.8768 278.2349 15.08842840 53292,6917.872,95.437,540.5,538.974,0.0
52000.0,STARLINK-3653,PAYLOAD,2023-02-13 08:57:40,15.08860612,0.0001155,53.2161,8.4228,80.0894,280.0228,0.00051216,7.877e-05,0.0,0 STARLINK-3653,1 52000U 22025AW  23044.37338350  .00007877  00000-0  51216-3 0  9990,2 52000  53.2161   8.4228 0001155  80.0894 280.0228 15.08860612 53324,6917.817,95.436,540.481,538.883,0.0
52000.0,STARLINK-3653,PAYLOAD,2023-02-14 04:02:18,15.08850846,0.0001002,53.2171,4.8561,74.8844,285.2258,0.00081712,0.00012744,0.0,0 STARLINK-3653,1 52000U 22025AW  23045.16827451  .00012744  00000-0  81712-3 0  9996,2 52000  53.2171   4.8561 0001002  74.8844 285.2258 15.08850846 53443,6917.847,95.437,540.405,539.019,0.0
52000.0,STARLINK-3653,PAYLOAD,2023-02-14 08:48:28,15.08878311,8.4e-05,53.2162,3.9624,71.264,288.8443,0.0025634,0.00040788,0.0,0 STARLINK-3653,1 52000U 22025AW  23045.36699110  .00040788  00000-0  25634-2 0  9996,2 52000  53.2162   3.9624 0000840  71.2640 288.8443 15.08878311 53472,6917.763,95.435,540.209,539.047,0.0
52000.0,STARLINK-3653,PAYLOAD,2023-02-15 03:53:06,15.08864798,7.38e-05,53.2162,0.3941,109.4293,250.6779,0.0026683,0.00042463,0.0,0 STARLINK-3653,1 52000U 22025AW  23046.16187560  .00042463  00000-0  26683-2 0  9993,2 52000  53.2162   0.3941 0000738 109.4293 250.6779 15.08864798 53595,6917.805,95.436,540.18,539.159,0.0
52000.0,STARLINK-3653,PAYLOAD,2023-02-15 13:25:24,15.08879134,7.64e-05,53.2164,358.6095,97.2885,262.8194,0.0029728,0.00047393,0.0,0 STARLINK-3653,1 52000U 22025AW  23046.55931322  .00047393  00000-0  29728-2 0  9999,2 52000  53.2164 358.6095 0000764  97.2885 262.8194 15.08879134 52120,6917.761,95.435,540.154,539.097,0.0
52000.0,STARLINK-3653,PAYLOAD,2023-02-16 02:08:29,15.0888377,7.27e-05,53.2157,356.2312,107.6228,252.4844,0.0044899,0.00071985,0.0,0 STARLINK-3653,1 52000U 22025AW  23047.08923009  .00071985  00000-0  44899-2 0  9991,2 52000  53.2157 356.2312 0000727 107.6228 252.4844 15.08883770 53730,6917.747,95.435,540.115,539.109,0.0
52000.0,STARLINK-3653,PAYLOAD,2023-02-16 13:16:11,15.08813093,0.0001669,53.2163,354.1483,72.1432,287.9742,0.0018634,0.00029471,0.0,0 STARLINK-3653,1 52000U 22025AW  23047.55291261  .00029471  00000-0  18634-2 0  9992,2 52000  53.2163 354.1483 0001669  72.1432 287.9742 15.08813093 52271,6917.963,95.439,540.982,538.673,0.0
52000.0,STARLINK-3653,PAYLOAD,2023-02-17 01:59:17,15.08824634,0.0001389,53.2157,351.7699,84.1474,275.9677,0.0017675,0.00027942,0.0,0 STARLINK-3653,1 52000U 22025AW  23048.08284300  .00027942  00000-0  17675-2 0  9992,2 52000  53.2157 351.7699 0001389  84.1474 275.9677 15.08824634 53889,6917.927,95.439,540.753,538.831,0.0
52000.0,STARLINK-3653,PAYLOAD,2023-02-17 13:07:00,15.08832486,0.0002261,53.2158,349.6884,69.0012,291.1221,0.0017058,0.00026959,0.0,0 STARLINK-3653,1 52000U 22025AW  23048.54653240  .00026959  00000-0  17058-2 0  9998,2 52000  53.2158 349.6884 0002261  69.0012 291.1221 15.08832486 52420,6917.903,95.438,541.332,538.204,0.0
52000.0,STARLINK-3653,PAYLOAD,2023-02-18 00:14:42,15.08819161,0.0001601,53.2145,347.6078,68.9215,291.1948,0.0024454,0.00038823,0.0,0 STARLINK-3653,1 52000U 22025AW  23049.01021958  .00038823  00000-0  24454-2 0  9997,2 52000  53.2145 347.6078 0001601  68.9215 291.1948 15.08819161 54028,6917.944,95.439,540.917,538.702,0.0
52000.0,STARLINK-3653,PAYLOAD,2023-02-18 12:57:48,15.08852319,0.0001549,53.2148,345.2281,69.071,291.0448,0.0021569,0.00034218,0.0,0 STARLINK-3653,1 52000U 22025AW  23049.54014108  .00034218  00000-0  21569-2 0  9992,2 52000  53.2148 345.2281 0001549  69.0710 291.0448 15.08852319 52578,6917.843,95.437,540.779,538.636,0.0
52000.0,STARLINK-3653,PAYLOAD,2023-02-19 01:40:52,15.0888666,0.0001522,53.2149,342.849,69.2985,290.817,0.002037,0.00032321,0.0,0 STARLINK-3653,1 52000U 22025AW  23050.07004978  .00032321  00000-0  20370-2 0  9998,2 52000  53.2149 342.8490 0001522  69.2985 290.8170 15.08886660 54185,6917.738,95.435,540.656,538.55,0.0
